{
    "CCSDS_OMM_VERS": "3.0",
    "COMMENT": "GENERATED VIA SPACE-TRACK.ORG API",
    "CREATION_DATE": "2025-11-23T23:06:32",
    "ORIGINATOR": "18 SPCS",
    "OBJECT_NAME": "BEIDOU 3M19",
    "OBJECT_ID": "2019-090A",
    "CENTER_NAME": "EARTH",
    "REF_FRAME": "TEME",
    "TIME_SYSTEM": "UTC",
    "MEAN_ELEMENT_THEORY": "SGP4",
    "EPOCH": "2025-11-23T20:26:29.897088",
    "MEAN_MOTION": "1.86231510",
    "ECCENTRICITY": "0.00172300",
    "INCLINATION": "56.3767",
    "RA_OF_ASC_NODE": "69.5887",
    "ARG_OF_PERICENTER": "284.2247",
    "MEAN_ANOMALY": "102.8142",
    "EPHEMERIS_TYPE": "0",
    "CLASSIFICATION_TYPE": "U",
    "NORAD_CAT_ID": "44864",
    "ELEMENT_SET_NO": "999",
    "REV_AT_EPOCH": "4041",
    "BSTAR": "0.00000000000000",
    "MEAN_MOTION_DOT": "-0.00000024",
    "MEAN_MOTION_DDOT": "0.0000000000000",
    "SEMIMAJOR_AXIS": "27906.138",
    "PERIOD": "773.231",
    "APOAPSIS": "21576.085",
    "PERIAPSIS": "21479.920",
    "OBJECT_TYPE": "PAYLOAD",
    "RCS_SIZE": "LARGE",
    "COUNTRY_CODE": "PRC",
    "LAUNCH_DATE": "2019-12-16",
    "SITE": "XSC",
    "DECAY_DATE": null,
    "FILE": "4896403",
    "GP_ID": "303353398",
    "TLE_LINE0": "0 BEIDOU 3M19",
    "TLE_LINE1": "1 44864U 19090A   25327.85173492 -.00000024  00000-0  00000+0 0  9999",
    "TLE_LINE2": "2 44864  56.3767  69.5887 0017230 284.2247 102.8142  1.86231510 40411"
}